[{"OBJECT_NAME":"STARLINK-32174","OBJECT_ID":"2024-183A","EPOCH":"2026-03-09T10:25:33.848256","MEAN_MOTION":15.30197352,"ECCENTRICITY":0.00013537,"INCLINATION":53.1611,"RA_OF_ASC_NODE":130.83,"ARG_OF_PERICENTER":63.8495,"MEAN_ANOMALY":296.2645,"EPHEMERIS_TYPE":0,"CLASSIFICATION_TYPE":"U","NORAD_CAT_ID":61509,"ELEMENT_SET_NO":999,"REV_AT_EPOCH":7979,"BSTAR":1.6940194e-5,"MEAN_MOTION_DOT":1.42e-6,"MEAN_MOTION_DDOT":0},{"OBJECT_NAME":"GEOSCAN 3 (RS92S3)","OBJECT_ID":"2025-155T","EPOCH":"2026-03-09T22:52:10.587648","MEAN_MOTION":15.31696739,"ECCENTRICITY":0.00068078,"INCLINATION":97.4455,"RA_OF_ASC_NODE":37.9971,"ARG_OF_PERICENTER":154.1387,"MEAN_ANOMALY":206.0196,"EPHEMERIS_TYPE":0,"CLASSIFICATION_TYPE":"U","NORAD_CAT_ID":64893,"ELEMENT_SET_NO":999,"REV_AT_EPOCH":6564,"BSTAR":0.00078414081,"MEAN_MOTION_DOT":0.00023985,"MEAN_MOTION_DDOT":0}]
